OBJECT_NAME,OBJECT_ID,EPOCH,MEAN_MOTION,ECCENTRICITY,INCLINATION,RA_OF_ASC_NODE,ARG_OF_PERICENTER,MEAN_ANOMALY,EPHEMERIS_TYPE,CLASSIFICATION_TYPE,NORAD_CAT_ID,ELEMENT_SET_NO,REV_AT_EPOCH,BSTAR,MEAN_MOTION_DOT,MEAN_MOTION_DDOT
JUPITER 3 (ECHOSTAR 24),2023-108A,2026-06-25T12:06:20.683584,1.00270232,.0001141,0.0219,12.3731,77.1550,270.4850,0,U,57479,999,1073,0,0,0
GALAXY 37 (G-37),2023-112A,2026-06-26T15:22:15.838176,1.00271790,.0002232,0.0141,51.4901,41.0965,285.7411,0,U,57493,999,1063,0,.59E-6,0
LUDI TANCE-4 01A,2023-120A,2026-06-26T01:00:06.780960,1.00268051,.00013548,15.0986,193.7428,22.0692,162.9814,0,U,57624,999,1063,0,-.154E-5,0
TJS-10,2023-169A,2026-06-26T17:27:20.223360,1.00271833,.0003937,2.5688,80.3883,103.3566,85.3876,0,U,58204,999,963,0,-.24E-5,0
ZHONGXING-6E,2023-172A,2026-06-26T09:40:49.550592,1.00275723,.000259,0.0365,262.4496,192.6137,80.1597,0,U,58253,999,975,0,-.35E-5,0
YAOGAN-41,2023-197A,2026-06-26T18:16:14.072736,1.00276824,.0014151,3.1109,313.2925,195.3828,163.4055,0,U,58582,999,941,0,-.347E-5,0
OVZON-3,2024-003A,2026-06-26T12:50:12.333408,1.00269273,.0000372,0.0147,37.7993,34.9185,94.1805,0,U,58698,999,754,0,0,0
INSAT-3DS,2024-033A,2026-06-26T16:21:54.452736,1.00270688,.0001468,0.0608,100.8725,344.9588,156.5219,0,U,58990,999,4716,0,-.144E-5,0
MERAH PUTIH 2,2024-035A,2026-06-26T09:40:04.621728,1.00274116,.0001434,0.0142,55.4627,40.8102,76.2233,0,U,58995,999,868,0,-.347E-5,0
TJS-11,2024-037A,2026-06-25T23:24:04.502304,1.00272649,.0003443,4.1874,327.1983,114.9735,295.6196,0,U,59020,999,867,0,-.351E-5,0
HULIANWAN GAOGUI-01 (HG-01),2024-040A,2026-06-26T14:25:26.645376,1.00275999,.000276,0.0690,330.6332,70.6463,123.3840,0,U,59069,999,742,0,.167E-5,0
EUTELSAT 36D,2024-059A,2026-06-26T11:00:49.194144,1.00269940,.00004251,0.0252,20.8916,95.7062,359.0303,0,U,59346,999,824,0,0,0
PAKSAT-MM1,2024-104A,2026-06-25T12:46:49.721088,1.00270693,.0002838,0.0388,91.2975,342.6532,69.5789,0,U,59915,999,761,0,.164E-5,0
ASTRA 1P (SES-24),2024-115A,2026-06-24T21:45:00.000000,1.00274964,.00008284,0.0595,340.0652,24.8630,253.5862,0,U,60086,999,727,0,.129E-5,0
GOES 19,2024-119A,2026-06-26T13:54:26.044704,1.00272215,.0000612,0.0028,105.6097,37.8145,264.6931,0,U,60133,999,705,0,-.237E-5,0
ZHONGXING-3A,2024-122A,2026-06-26T07:54:12.065184,1.00272295,.0001532,0.0422,126.7500,356.6470,11.1904,0,U,60179,999,740,0,-.302E-5,0
TURKSAT 6A,2024-127A,2026-06-26T05:54:34.668576,1.00276339,.0001976,0.0586,216.7988,276.9261,271.3264,0,U,60233,999,710,0,.157E-5,0
HULIANWAN GAOGUI-02 (HG-02),2024-135A,2026-06-25T03:36:38.736576,1.00271607,.0007449,0.0431,357.3362,13.5264,109.6933,0,U,60327,999,758,0,-.164E-5,0
ZHONGXING-4A,2024-151A,2026-06-26T16:32:17.268000,1.00269412,.0000544,1.2900,270.7035,210.5084,159.8805,0,U,60606,999,685,0,-.349E-5,0
HULIANWAN GAOGUI-03 (HG-03),2024-181A,2026-06-25T08:48:40.628160,1.00273676,.0001415,0.0460,358.5440,93.2530,236.7381,0,U,61503,999,690,0,-.231E-5,0
DSN-3 (KIRAMEKI-3),2024-198A,2026-06-25T21:50:23.224992,1.00269696,.00009361,0.0170,330.8442,145.3294,269.4917,0,U,61733,999,600,0,-.24E-5,0
KOREASAT 6A,2024-206A,2026-06-26T13:28:38.808192,1.00268396,.0001032,0.0160,20.5142,70.5013,141.8538,0,U,61910,999,593,0,0,0
OPTUS-X (ADS-01),2024-212A,2026-06-26T16:43:08.728320,1.00272003,.0002248,0.0188,4.3176,124.8714,192.7972,0,U,62006,999,585,0,-.132E-5,0
GSAT-N2 (GSAT-20),2024-214A,2026-06-26T16:17:54.837024,1.00272232,.000223,0.0590,102.8098,343.3507,141.0524,0,U,62028,999,599,0,-.8E-7,0
SXM-9,2024-234A,2026-06-26T07:04:01.324992,1.00269553,.000466,0.0124,341.5700,336.2086,337.4858,0,U,62259,999,566,0,-.194E-5,0
TJS-12,2024-246A,2026-06-24T18:47:39.350112,1.00268446,.00021091,0.6533,299.9327,91.7487,309.6330,0,U,62374,999,564,0,-.223E-5,0
NUVIEW ALPHA,2024-252B,2026-06-26T12:09:30.608064,1.00273030,.0001057,0.0495,29.2873,34.1659,310.4722,0,U,62455,999,391,0,-.204E-5,0
AGILA,2024-252C,2026-06-26T16:41:46.358016,1.00271768,.0001627,0.0638,124.6228,348.9412,203.8464,0,U,62456,999,525,0,-.17E-5,0
NUVIEW BRAVO,2024-252D,2026-06-26T12:09:30.608064,1.00272324,.0002178,0.0725,152.0814,330.7072,251.1216,0,U,62457,999,388,0,-.204E-5,0
THURAYA-4,2025-001A,2026-06-26T14:28:26.358240,1.00273329,.000022,0.0231,64.8371,356.4338,114.8728,0,U,62483,999,427,0,.15E-5,0
SHIJIAN-25 (SJ-25),2025-002A,2026-06-26T18:00:52.119936,1.00279431,.0051249,5.1354,61.1092,174.7668,76.4681,0,U,62485,999,545,0,-.343E-5,0
TJS-14,2025-017A,2026-06-26T07:30:27.345600,1.00269028,.0001127,0.7617,296.2579,294.8293,174.3725,0,U,62804,999,536,0,.127E-5,0
