JUPITER 3 (ECHOSTAR 24) 
1 57479U 23108A   26176.50440606  .00000000  00000+0  00000+0 0  9991
2 57479   0.0219  12.3731 0001141  77.1550 270.4850  1.00270232 10739
GALAXY 37 (G-37)        
1 57493U 23112A   26177.64046109  .00000059  00000+0  00000+0 0  9992
2 57493   0.0141  51.4901 0002232  41.0965 285.7411  1.00271790 10635
LUDI TANCE-4 01A        
1 57624U 23120A   26177.04174515 -.00000154  00000+0  00000+0 0  9991
2 57624  15.0986 193.7428 0001354  22.0692 162.9814  1.00268051 10637
TJS-10                  
1 58204U 23169A   26177.72731740 -.00000240  00000+0  00000+0 0  9999
2 58204   2.5688  80.3883 0003937 103.3566  85.3876  1.00271833  9636
ZHONGXING-6E            
1 58253U 23172A   26177.40335128 -.00000350  00000+0  00000+0 0  9994
2 58253   0.0365 262.4496 0002590 192.6137  80.1597  1.00275723  9755
YAOGAN-41               
1 58582U 23197A   26177.76127399 -.00000347  00000+0  00000+0 0  9990
2 58582   3.1109 313.2925 0014151 195.3828 163.4055  1.00276824  9415
OVZON-3                 
1 58698U 24003A   26177.53486497  .00000000  00000+0  00000+0 0  9992
2 58698   0.0147  37.7993 0000372  34.9185  94.1805  1.00269273  7543
INSAT-3DS               
1 58990U 24033A   26177.68188024 -.00000144  00000+0  00000+0 0  9991
2 58990   0.0608 100.8725 0001468 344.9588 156.5219  1.00270688 47169
MERAH PUTIH 2           
1 58995U 24035A   26177.40283127 -.00000347  00000+0  00000+0 0  9993
2 58995   0.0142  55.4627 0001434  40.8102  76.2233  1.00274116  8688
TJS-11                  
1 59020U 24037A   26176.97505211 -.00000351  00000+0  00000+0 0  9992
2 59020   4.1874 327.1983 0003443 114.9735 295.6196  1.00272649  8679
HULIANWAN GAOGUI-01 (H*)
1 59069U 24040A   26177.60100284  .00000167  00000+0  00000+0 0  9995
2 59069   0.0690 330.6332 0002760  70.6463 123.3840  1.00275999  7423
EUTELSAT 36D            
1 59346U 24059A   26177.45890271  .00000000  00000+0  00000+0 0  9994
2 59346   0.0252  20.8916 0000425  95.7062 359.0303  1.00269940  8242
PAKSAT-MM1              
1 59915U 24104A   26176.53251992  .00000164  00000+0  00000+0 0  9997
2 59915   0.0388  91.2975 0002838 342.6532  69.5789  1.00270693  7615
ASTRA 1P (SES-24)       
1 60086U 24115A   26175.90625000  .00000129  00000+0  00000+0 0  9996
2 60086   0.0595 340.0652 0000828  24.8630 253.5862  1.00274964  7272
GOES 19                 
1 60133U 24119A   26177.57946811 -.00000237  00000+0  00000+0 0  9995
2 60133   0.0028 105.6097 0000612  37.8145 264.6931  1.00272215  7053
ZHONGXING-3A            
1 60179U 24122A   26177.32930631 -.00000302  00000+0  00000+0 0  9998
2 60179   0.0422 126.7500 0001532 356.6470  11.1904  1.00272295  7401
TURKSAT 6A              
1 60233U 24127A   26177.24623459  .00000157  00000+0  00000+0 0  9999
2 60233   0.0586 216.7988 0001976 276.9261 271.3264  1.00276339  7106
HULIANWAN GAOGUI-02 (H*)
1 60327U 24135A   26176.15044834 -.00000164  00000+0  00000+0 0  9994
2 60327   0.0431 357.3362 0007449  13.5264 109.6933  1.00271607  7587
ZHONGXING-4A            
1 60606U 24151A   26177.68908875 -.00000349  00000+0  00000+0 0  9990
2 60606   1.2900 270.7035 0000544 210.5084 159.8805  1.00269412  6859
HULIANWAN GAOGUI-03 (H*)
1 61503U 24181A   26176.36713690 -.00000231  00000+0  00000+0 0  9993
2 61503   0.0460 358.5440 0001415  93.2530 236.7381  1.00273676  6906
DSN-3 (KIRAMEKI-3)      
1 61733U 24198A   26176.90999103 -.00000240  00000+0  00000+0 0  9991
2 61733   0.0170 330.8442 0000936 145.3294 269.4917  1.00269696  6003
KOREASAT 6A             
1 61910U 24206A   26177.56156028  .00000000  00000+0  00000+0 0  9995
2 61910   0.0160  20.5142 0001032  70.5013 141.8538  1.00268396  5934
OPTUS-X (ADS-01)        
1 62006U 24212A   26177.69662880 -.00000132  00000+0  00000+0 0  9998
2 62006   0.0188   4.3176 0002248 124.8714 192.7972  1.00272003  5857
GSAT-N2 (GSAT-20)       
1 62028U 24214A   26177.67910691 -.00000008  00000+0  00000+0 0  9990
2 62028   0.0590 102.8098 0002230 343.3507 141.0524  1.00272232  5993
SXM-9                   
1 62259U 24234A   26177.29445978 -.00000194  00000+0  00000+0 0  9993
2 62259   0.0124 341.5700 0004660 336.2086 337.4858  1.00269553  5663
TJS-12                  
1 62374U 24246A   26175.78309433 -.00000223  00000+0  00000+0 0  9994
2 62374   0.6533 299.9327 0002109  91.7487 309.6330  1.00268446  5640
NUVIEW ALPHA            
1 62455U 24252B   26177.50660426 -.00000204  00000+0  00000+0 0  9994
2 62455   0.0495  29.2873 0001057  34.1659 310.4722  1.00273030  3912
AGILA                   
1 62456U 24252C   26177.69567544 -.00000170  00000+0  00000+0 0  9994
2 62456   0.0638 124.6228 0001627 348.9412 203.8464  1.00271768  5255
NUVIEW BRAVO            
1 62457U 24252D   26177.50660426 -.00000204  00000+0  00000+0 0  9996
2 62457   0.0725 152.0814 0002178 330.7072 251.1216  1.00272324  3889
THURAYA-4               
1 62483U 25001A   26177.60308285  .00000150  00000+0  00000+0 0  9990
2 62483   0.0231  64.8371 0000220 356.4338 114.8728  1.00273329  4277
SHIJIAN-25 (SJ-25)      
1 62485U 25002A   26177.75060324 -.00000343  00000+0  00000+0 0  9993
2 62485   5.1354  61.1092 0051249 174.7668  76.4681  1.00279431  5457
TJS-14                  
1 62804U 25017A   26177.31281650  .00000127  00000+0  00000+0 0  9992
2 62804   0.7617 296.2579 0001127 294.8293 174.3725  1.00269028  5362
